{
  "type": "FeatureCollection",
  "features": [
    {
      "type": "Feature",
      "properties": {
        "norad_id": 31888,
        "name": "FENGYUN 1C DEB",
        "group": "fengyun-1c-debris",
        "lat": -54.9358523275635,
        "lon": -61.40476051134703,
        "alt_km": 792.1485928245484,
        "timestamp": "2025-12-24T05:51:19.893190+00:00",
        "meta_object_name": "FENGYUN 1C DEB",
        "meta_object_id": "1999-025CKP",
        "meta_epoch": "2025-12-23T15:02:46.088448",
        "meta_mean_motion": 14.34034526,
        "meta_eccentricity": 0.00174868,
        "meta_inclination": 99.1542,
        "meta_ra_of_asc_node": 284.6608,
        "meta_arg_of_pericenter": 182.2793,
        "meta_mean_anomaly": 177.8313,
        "meta_ephemeris_type": 0,
        "meta_classification_type": "U",
        "meta_norad_cat_id": 31888,
        "meta_element_set_no": 999,
        "meta_rev_at_epoch": 95793,
        "meta_bstar": 0.0018919921,
        "meta_mean_motion_dot": 5.249e-05,
        "meta_mean_motion_ddot": 0,
        "tle_line1": "1 31888U 99025CKP 25357.62692232  .00005249  00000+0  18920-2 0  9998",
        "tle_line2": "2 31888  99.1542 284.6608 0017486 182.2793 177.8313 14.34034526957937"
      },
      "geometry": {
        "type": "Point",
        "coordinates": [
          -61.40476051134703,
          -54.9358523275635
        ]
      }
    },
    {
      "type": "Feature",
      "properties": {
        "norad_id": 31890,
        "name": "FENGYUN 1C DEB",
        "group": "fengyun-1c-debris",
        "lat": 75.14340927128428,
        "lon": -25.932271745013228,
        "alt_km": 885.946695333645,
        "timestamp": "2025-12-24T05:51:19.893200+00:00",
        "meta_object_name": "FENGYUN 1C DEB",
        "meta_object_id": "1999-025CKR",
        "meta_epoch": "2025-12-18T06:26:12.801408",
        "meta_mean_motion": 14.10135343,
        "meta_eccentricity": 0.00717599,
        "meta_inclination": 98.7186,
        "meta_ra_of_asc_node": 3.6189,
        "meta_arg_of_pericenter": 226.3843,
        "meta_mean_anomaly": 133.1361,
        "meta_ephemeris_type": 0,
        "meta_classification_type": "U",
        "meta_norad_cat_id": 31890,
        "meta_element_set_no": 999,
        "meta_rev_at_epoch": 64230,
        "meta_bstar": 0.00011349556,
        "meta_mean_motion_dot": 1.63e-06,
        "meta_mean_motion_ddot": 0,
        "tle_line1": "1 31890U 99025CKR 25352.26820372  .00000163  00000+0  11350-3 0  9995",
        "tle_line2": "2 31890  98.7186   3.6189 0071759 226.3843 133.1361 14.10135343642304"
      },
      "geometry": {
        "type": "Point",
        "coordinates": [
          -25.932271745013228,
          75.14340927128428
        ]
      }
    },
    {
      "type": "Feature",
      "properties": {
        "norad_id": 31891,
        "name": "FENGYUN 1C DEB",
        "group": "fengyun-1c-debris",
        "lat": -28.730289437861256,
        "lon": 18.210168226592163,
        "alt_km": 1185.165303518841,
        "timestamp": "2025-12-24T05:51:19.893210+00:00",
        "meta_object_name": "FENGYUN 1C DEB",
        "meta_object_id": "1999-025CKS",
        "meta_epoch": "2025-12-22T06:32:52.690848",
        "meta_mean_motion": 13.66212929,
        "meta_eccentricity": 0.02251424,
        "meta_inclination": 99.4019,
        "meta_ra_of_asc_node": 11.0849,
        "meta_arg_of_pericenter": 158.7468,
        "meta_mean_anomaly": 202.3212,
        "meta_ephemeris_type": 0,
        "meta_classification_type": "U",
        "meta_norad_cat_id": 31891,
        "meta_element_set_no": 999,
        "meta_rev_at_epoch": 92540,
        "meta_bstar": 0.00046222559,
        "meta_mean_motion_dot": 4.12e-06,
        "meta_mean_motion_ddot": 0,
        "tle_line1": "1 31891U 99025CKS 25356.27283207  .00000412  00000+0  46223-3 0  9995",
        "tle_line2": "2 31891  99.4019  11.0849 0225142 158.7468 202.3212 13.66212929925407"
      },
      "geometry": {
        "type": "Point",
        "coordinates": [
          18.210168226592163,
          -28.730289437861256
        ]
      }
    },
    {
      "type": "Feature",
      "properties": {
        "norad_id": 31892,
        "name": "FENGYUN 1C DEB",
        "group": "fengyun-1c-debris",
        "lat": 45.18441395965934,
        "lon": -1.4735405895827438,
        "alt_km": 818.4763928074171,
        "timestamp": "2025-12-24T05:51:19.893220+00:00",
        "meta_object_name": "FENGYUN 1C DEB",
        "meta_object_id": "1999-025CKT",
        "meta_epoch": "2025-12-22T06:33:48.015360",
        "meta_mean_motion": 14.41236891,
        "meta_eccentricity": 0.02014657,
        "meta_inclination": 99.2968,
        "meta_ra_of_asc_node": 166.8939,
        "meta_arg_of_pericenter": 259.0043,
        "meta_mean_anomaly": 98.8424,
        "meta_ephemeris_type": 0,
        "meta_classification_type": "U",
        "meta_norad_cat_id": 31892,
        "meta_element_set_no": 999,
        "meta_rev_at_epoch": 65043,
        "meta_bstar": 0.00063446246,
        "meta_mean_motion_dot": 2.547e-05,
        "meta_mean_motion_ddot": 0,
        "tle_line1": "1 31892U 99025CKT 25356.27347240  .00002547  00000+0  63446-3 0  9991",
        "tle_line2": "2 31892  99.2968 166.8939 0201465 259.0043  98.8424 14.41236891650433"
      },
      "geometry": {
        "type": "Point",
        "coordinates": [
          -1.4735405895827438,
          45.18441395965934
        ]
      }
    },
    {
      "type": "Feature",
      "properties": {
        "norad_id": 31893,
        "name": "FENGYUN 1C DEB",
        "group": "fengyun-1c-debris",
        "lat": 0.560691598263049,
        "lon": -42.4132847992785,
        "alt_km": 638.2798500532726,
        "timestamp": "2025-12-24T05:51:19.893230+00:00",
        "meta_object_name": "FENGYUN 1C DEB",
        "meta_object_id": "1999-025CKU",
        "meta_epoch": "2025-12-21T04:05:40.704864",
        "meta_mean_motion": 14.63799874,
        "meta_eccentricity": 0.01744274,
        "meta_inclination": 99.0712,
        "meta_ra_of_asc_node": 314.2943,
        "meta_arg_of_pericenter": 300.8444,
        "meta_mean_anomaly": 71.653,
        "meta_ephemeris_type": 0,
        "meta_classification_type": "U",
        "meta_norad_cat_id": 31893,
        "meta_element_set_no": 999,
        "meta_rev_at_epoch": 98528,
        "meta_bstar": 0.00027010853,
        "meta_mean_motion_dot": 1.686e-05,
        "meta_mean_motion_ddot": 0,
        "tle_line1": "1 31893U 99025CKU 25355.17061001  .00001686  00000+0  27011-3 0  9999",
        "tle_line2": "2 31893  99.0712 314.2943 0174427 300.8444  71.6530 14.63799874985280"
      },
      "geometry": {
        "type": "Point",
        "coordinates": [
          -42.4132847992785,
          0.560691598263049
        ]
      }
    },
    {
      "type": "Feature",
      "properties": {
        "norad_id": 31895,
        "name": "FENGYUN 1C DEB",
        "group": "fengyun-1c-debris",
        "lat": -0.800701199923865,
        "lon": -153.50401193191632,
        "alt_km": 823.6741216366545,
        "timestamp": "2025-12-24T05:51:19.893528+00:00",
        "meta_object_name": "FENGYUN 1C DEB",
        "meta_object_id": "1999-025CKW",
        "meta_epoch": "2025-12-22T19:48:12.153024",
        "meta_mean_motion": 13.75569299,
        "meta_eccentricity": 0.02272161,
        "meta_inclination": 99.0943,
        "meta_ra_of_asc_node": 25.2696,
        "meta_arg_of_pericenter": 202.9937,
        "meta_mean_anomaly": 156.0915,
        "meta_ephemeris_type": 0,
        "meta_classification_type": "U",
        "meta_norad_cat_id": 31895,
        "meta_element_set_no": 999,
        "meta_rev_at_epoch": 62035,
        "meta_bstar": 0.0017599678,
        "meta_mean_motion_dot": 2.006e-05,
        "meta_mean_motion_ddot": 0,
        "tle_line1": "1 31895U 99025CKW 25356.82514066  .00002006  00000+0  17600-2 0  9997",
        "tle_line2": "2 31895  99.0943  25.2696 0227216 202.9937 156.0915 13.75569299620353"
      },
      "geometry": {
        "type": "Point",
        "coordinates": [
          -153.50401193191632,
          -0.800701199923865
        ]
      }
    },
    {
      "type": "Feature",
      "properties": {
        "norad_id": 31898,
        "name": "FENGYUN 1C DEB",
        "group": "fengyun-1c-debris",
        "lat": -81.19020949762374,
        "lon": -54.824158243885485,
        "alt_km": 667.6202407228848,
        "timestamp": "2025-12-24T05:51:19.893541+00:00",
        "meta_object_name": "FENGYUN 1C DEB",
        "meta_object_id": "1999-025CKZ",
        "meta_epoch": "2025-12-20T09:03:23.166144",
        "meta_mean_motion": 14.68533537,
        "meta_eccentricity": 0.01439518,
        "meta_inclination": 98.707,
        "meta_ra_of_asc_node": 219.6404,
        "meta_arg_of_pericenter": 195.5546,
        "meta_mean_anomaly": 164.1211,
        "meta_ephemeris_type": 0,
        "meta_classification_type": "U",
        "meta_norad_cat_id": 31898,
        "meta_element_set_no": 999,
        "meta_rev_at_epoch": 65824,
        "meta_bstar": 0.00069711283,
        "meta_mean_motion_dot": 4.672e-05,
        "meta_mean_motion_ddot": 0,
        "tle_line1": "1 31898U 99025CKZ 25354.37735146  .00004672  00000+0  69711-3 0  9994",
        "tle_line2": "2 31898  98.7070 219.6404 0143951 195.5546 164.1211 14.68533537658242"
      },
      "geometry": {
        "type": "Point",
        "coordinates": [
          -54.824158243885485,
          -81.19020949762374
        ]
      }
    }
  ]
}